{
  "norad_id": 57206,
  "name": "2023-091AS",
  "history": [
    {
      "epoch": "2026-03-28T21:26:24.043776Z",
      "apogee_km": 410.1126919195658,
      "perigee_km": 405.93106081994574,
      "latitude_deg": 2.763906855965376e-05,
      "longitude_deg": 15.49956804051304,
      "height_km": 409.391158152162,
      "semi_major_axis_km": 6786.1588763697555,
      "eccentricity": 0.0003081,
      "inclination_deg": 97.5114,
      "raan_deg": 163.407,
      "arg_perigee_deg": 327.5533,
      "mean_anomaly_deg": 32.553,
      "mean_motion_rev_day": 15.52983092
    },
    {
      "epoch": "2026-03-29T03:37:32.278656Z",
      "apogee_km": 409.95161633247517,
      "perigee_km": 405.85420543428336,
      "latitude_deg": 3.2798382898304805e-05,
      "longitude_deg": -77.26907902032133,
      "height_km": 409.3305345405903,
      "semi_major_axis_km": 6786.039910883379,
      "eccentricity": 0.0003019,
      "inclination_deg": 97.5114,
      "raan_deg": 163.6767,
      "arg_perigee_deg": 326.3878,
      "mean_anomaly_deg": 33.7183,
      "mean_motion_rev_day": 15.5302393
    },
    {
      "epoch": "2026-03-30T04:21:59.554656Z",
      "apogee_km": 409.5272667876452,
      "perigee_km": 405.3636333962686,
      "latitude_deg": -4.0668623678863116e-05,
      "longitude_deg": -88.31949181500208,
      "height_km": 408.9506543041605,
      "semi_major_axis_km": 6785.582450091957,
      "eccentricity": 0.0003068,
      "inclination_deg": 97.5112,
      "raan_deg": 164.756,
      "arg_perigee_deg": 321.4947,
      "mean_anomaly_deg": 38.6086,
      "mean_motion_rev_day": 15.53180982
    },
    {
      "epoch": "2026-03-30T13:38:37.521312Z",
      "apogee_km": 409.4156598301797,
      "perigee_km": 405.16092675427353,
      "latitude_deg": 4.294552018840604e-05,
      "longitude_deg": 132.54650167063016,
      "height_km": 408.7872837808265,
      "semi_major_axis_km": 6785.425293292226,
      "eccentricity": 0.00031352,
      "inclination_deg": 97.5112,
      "raan_deg": 165.1612,
      "arg_perigee_deg": 320.2462,
      "mean_anomaly_deg": 39.8561,
      "mean_motion_rev_day": 15.53234942
    },
    {
      "epoch": "2026-03-30T21:22:28.171776Z",
      "apogee_km": 409.2555109349978,
      "perigee_km": 405.0261115696876,
      "latitude_deg": 2.3014714897701076e-05,
      "longitude_deg": 16.60487100037315,
      "height_km": 408.71271367543994,
      "semi_major_axis_km": 6785.277811252343,
      "eccentricity": 0.00031166,
      "inclination_deg": 97.511,
      "raan_deg": 165.4981,
      "arg_perigee_deg": 317.6483,
      "mean_anomaly_deg": 42.4529,
      "mean_motion_rev_day": 15.53285583
    },
    {
      "epoch": "2026-03-31T20:33:55.509408Z",
      "apogee_km": 408.88264536535917,
      "perigee_km": 404.6610750725313,
      "latitude_deg": 2.255893573821304e-05,
      "longitude_deg": 28.80064805553394,
      "height_km": 408.46089533074485,
      "semi_major_axis_km": 6784.908860218945,
      "eccentricity": 0.0003111,
      "inclination_deg": 97.5107,
      "raan_deg": 166.5102,
      "arg_perigee_deg": 313.2429,
      "mean_anomaly_deg": 46.8564,
      "mean_motion_rev_day": 15.53412282
    },
    {
      "epoch": "2026-04-01T19:45:15.998976Z",
      "apogee_km": 408.53756293615606,
      "perigee_km": 404.2470266101409,
      "latitude_deg": -5.364549174070818e-05,
      "longitude_deg": 41.02484665016127,
      "height_km": 408.1958391473229,
      "semi_major_axis_km": 6784.529294773148,
      "eccentricity": 0.0003162,
      "inclination_deg": 97.5105,
      "raan_deg": 167.5221,
      "arg_perigee_deg": 308.3832,
      "mean_anomaly_deg": 51.7136,
      "mean_motion_rev_day": 15.53542644
    },
    {
      "epoch": "2026-04-02T20:29:13.172352Z",
      "apogee_km": 407.9556243646366,
      "perigee_km": 403.73056156273924,
      "latitude_deg": 1.099123756691136e-05,
      "longitude_deg": 30.10028692978096,
      "height_km": 407.8064870487458,
      "semi_major_axis_km": 6783.980092963688,
      "eccentricity": 0.0003114,
      "inclination_deg": 97.5098,
      "raan_deg": 168.6015,
      "arg_perigee_deg": 303.716,
      "mean_anomaly_deg": 56.3796,
      "mean_motion_rev_day": 15.537313
    },
    {
      "epoch": "2026-04-02T22:01:57.594144Z",
      "apogee_km": 407.9103590765517,
      "perigee_km": 403.69617538254806,
      "latitude_deg": 9.243339066582511e-07,
      "longitude_deg": 6.919118971429489,
      "height_km": 407.7938163936688,
      "semi_major_axis_km": 6783.94026722955,
      "eccentricity": 0.0003106,
      "inclination_deg": 97.5098,
      "raan_deg": 168.6689,
      "arg_perigee_deg": 302.932,
      "mean_anomaly_deg": 57.1634,
      "mean_motion_rev_day": 15.53744982
    },
    {
      "epoch": "2026-04-03T19:40:15.046176Z",
      "apogee_km": 407.4946314023746,
      "perigee_km": 403.10574754078607,
      "latitude_deg": -4.833934696606068e-06,
      "longitude_deg": 42.40265440005695,
      "height_km": 407.36820492255515,
      "semi_major_axis_km": 6783.4371894715805,
      "eccentricity": 0.0003235,
      "inclination_deg": 97.5095,
      "raan_deg": 169.6138,
      "arg_perigee_deg": 299.1391,
      "mean_anomaly_deg": 60.9538,
      "mean_motion_rev_day": 15.5391783
    }
  ]
}